SPACEMOBILE-004         
1 61049U 24163E   26190.57554382 -.00014088  00000+0 -61665-3 0  9992
2 61049  52.9654 205.9666 0008113 207.5207 152.5359 15.20814564101179
SZ-21 MODULE            
1 66515U 25246C   26192.90617507  .00034985  00000+0  19568-3 0  9997
2 66515  41.4695 153.1215 0007517 198.3758 161.6817 15.78573776 37649
SPACEMOBILE-006         
1 67232U 25309A   26192.45965029  .00000216  00000+0  25641-4 0  9999
2 67232  52.9930 220.4489 0010403 203.4538 156.5982 15.18647644 30287
SPACEMOBILE-008         
1 69589U 26139A   26192.32103221  .00000086  00000+0  21806-4 0  9996
2 69589  52.9941 152.9965 0004879  47.3692 312.7710 15.12799068  3636
SPACEMOBILE-009         
1 69590U 26139B   26192.91735287 -.00000035  00000+0  15047-4 0  9991
2 69590  52.9934 150.3026 0005154  44.3660 315.7743 15.12692794  3726
SPACEMOBILE-010         
1 69591U 26139C   26192.92010088 -.00000045  00000+0  14514-4 0  9997
2 69591  52.9939 150.3223 0005061  35.8507 324.2823 15.12523875  3731
