OBJECT_NAME,OBJECT_ID,EPOCH,MEAN_MOTION,ECCENTRICITY,INCLINATION,RA_OF_ASC_NODE,ARG_OF_PERICENTER,MEAN_ANOMALY,EPHEMERIS_TYPE,CLASSIFICATION_TYPE,NORAD_CAT_ID,ELEMENT_SET_NO,REV_AT_EPOCH,BSTAR,MEAN_MOTION_DOT,MEAN_MOTION_DDOT
SPACEMOBILE-004,2024-163E,2026-07-09T13:48:46.986048,15.20814564,.00081135,52.9654,205.9666,207.5207,152.5359,0,U,61049,999,10117,-.61664582E-3,-.14088E-3,0
SZ-21 MODULE,2025-246C,2026-07-11T21:44:53.526048,15.78573776,.00075173,41.4695,153.1215,198.3758,161.6817,0,U,66515,999,3764,.19567861E-3,.34985E-3,0
SPACEMOBILE-006,2025-309A,2026-07-11T11:01:53.785056,15.18647644,.00104031,52.9930,220.4489,203.4538,156.5982,0,U,67232,999,3028,.25640547E-4,.216E-5,0
SPACEMOBILE-008,2026-139A,2026-07-11T07:42:17.182944,15.12799068,.00048794,52.9941,152.9965,47.3692,312.7710,0,U,69589,999,363,.21806253E-4,.86E-6,0
SPACEMOBILE-009,2026-139B,2026-07-11T22:00:59.287968,15.12692794,.0005154,52.9934,150.3026,44.3660,315.7743,0,U,69590,999,372,.15046768E-4,-.35E-6,0
SPACEMOBILE-010,2026-139C,2026-07-11T22:04:56.716032,15.12523875,.00050618,52.9939,150.3223,35.8507,324.2823,0,U,69591,999,373,.14513744E-4,-.45E-6,0
